YOTSUBA-KULOVER         
1 65941U 98067XN  26062.31379260  .00190411  00000+0  10922-2 0  9993
2 65941  51.6214  90.2937 0006067  29.9333 330.2013 15.77666940 22494
BOTAN                   
1 65942U 98067XP  26062.30429370  .04760636  12041-4  14503-2 0  9999
2 65942  51.6040  82.5602 0002926  46.9281 313.1984 16.26065139 22592
E-KAGAKU-1              
1 65943U 98067XQ  26062.31702450  .00183480  00000+0  10654-2 0  9996
2 65943  51.6236  90.3309 0006308  37.0943 323.0492 15.77409964 22491
HRC MONOBLOCK CAMERA    
1 66052U 98067XR  26062.42976719  .00054740  00000+0  63041-3 0  9996
2 66052  51.6272  97.1087 0003333  64.5025 295.6314 15.61422714 21411
HTV-X1                  
1 66174U 25241A   26062.89864036  .00010104  00000+0  19499-3 0  9998
2 66174  51.6318 100.9868 0008208 154.1881 205.9518 15.48428601554472
SZ-21 MODULE            
1 66515U 25246C   26062.76916662  .00044751  00000+0  39281-3 0  9997
2 66515  41.4730 239.7930 0001447 287.9355  72.1329 15.68011820 17141
SHENZHOU-22             
1 66645U 25272A   26062.95572432  .00034693  00000+0  41303-3 0  9996
2 66645  41.4657 243.0428 0006812 239.4436 120.5731 15.60371210267524
SOYUZ-MS 28             
1 66664U 25275A   26062.89864036  .00010104  00000+0  19499-3 0  9999
2 66664  51.6318 100.9868 0008208 154.1881 205.9518 15.48428601554522
DUPLEX                  
1 66906U 98067XS  26062.35625276  .00032923  00000+0  47371-3 0  9992
2 66906  51.6288 101.1190 0002038  89.0398 271.0826 15.55742662 14141
ISS OBJECT XT           
1 66907U 98067XT  26062.33753348  .00141674  00000+0  12825-2 0  9992
2 66907  51.6251  97.9840 0004568  38.4231 321.7090 15.67089753 14188
ISS OBJECT XU           
1 66908U 98067XU  26062.46368431  .00149295  00000+0  13430-2 0  9992
2 66908  51.6245  97.3227 0004671  43.1438 316.9924 15.67218012 14209
SILVERSAT               
1 66909U 98067XV  26062.34799073  .00179133  00000+0  14568-2 0  9997
2 66909  51.6247  97.2997 0005410  39.2869 320.8520 15.69574615 14191
